GLOBALSTAR M023         
1 25621U 99004A   25333.20377416 -.00000097  00000+0  36755-4 0  9990
2 25621  52.0112 270.9588 0010249 128.4330  11.1672 12.62509797236574
GLOBALSTAR M040         
1 25622U 99004B   25333.24403966 -.00000089  00000+0  82403-4 0  9997
2 25622  51.9927 275.2340 0001467  40.9151 103.3589 12.62023666236096
GLOBALSTAR M036         
1 25623U 99004C   25332.32773997 -.00000059  00000+0  34935-3 0  9993
2 25623  51.9931 167.6757 0010867  10.5366 160.3747 11.86617938198466
GLOBALSTAR M038         
1 25624U 99004D   25333.29812323 -.00000066  00000+0  23835-3 0  9993
2 25624  51.9990 316.0671 0002132  38.5935  69.7469 12.32536510222734
GLOBALSTAR M022         
1 25649U 99012A   25333.00609816 -.00000082  00000+0  58426-4 0  9992
2 25649  52.0016 202.8466 0003295 120.3923  18.3460 12.02507335196207
GLOBALSTAR M041         
1 25650U 99012B   25333.01614935 -.00000065  00000+0  26421-3 0  9993
2 25650  52.0016  89.2921 0000416 271.2523  88.8266 11.96681176198011
GLOBALSTAR M046         
1 25651U 99012C   25333.24999050  .00000045  00000+0  14756-2 0  9997
2 25651  52.0027 146.2909 0001553 186.9519 344.2412 12.09417802203639
GLOBALSTAR M037         
1 25652U 99012D   25333.16347216 -.00000042  00000+0  34378-3 0  9991
2 25652  52.0026  41.6379 0002253 180.4280 199.9538 12.62457059232116
